STARLETTE               
1 07646U 75010A   23193.49952793 -.00000125  00000+0  15281-4 0  9991
2 07646  49.8248  10.7052 0205677 126.0760 235.9374 13.82319621446423
LAGEOS 1                
1 08820U 76039A   23191.90317212  .00000011  00000+0  00000+0 0  9994
2 08820 109.8058 172.0503 0044936 172.4712 206.3192  6.38664657845077
AJISAI (EGS)            
1 16908U 86061A   23192.83287035 -.00000077  00000+0  14502-3 0  9997
2 16908  50.0061 201.7449 0011325 333.1345  85.0505 12.44501283347332
COSMOS 1989 (ETALON 1)  
1 19751U 89001C   23192.72676987 -.00000043  00000+0  00000+0 0  9996
2 19751  64.4168 108.9892 0023985 214.7714 154.0148  2.13156198268605
COSMOS 2024 (ETALON 2)  
1 20026U 89039C   23192.76114661 -.00000074  00000+0  00000+0 0  9998
2 20026  65.4643 347.1789 0018852 217.9873 152.1168  2.13204334265650
LAGEOS 2                
1 22195U 92070B   23192.04560186 -.00000009  00000+0  00000+0 0  9992
2 22195  52.6369 224.2272 0138851  78.4310 296.3435  6.47294249726219
STELLA                  
1 22824U 93061B   23193.14684552 -.00000029  00000+0  69510-5 0  9997
2 22824  98.9267 228.1685 0007423 104.9690 351.9626 14.27406649552139
LARES                   
1 38077U 12006A   23193.01336351 -.00000039  00000+0 -14501-5 0  9993
2 38077  69.4931 321.9016 0010387 320.3336  39.6929 12.54931202522770
